[{"OBJECT_NAME":"STARLINK-33967","OBJECT_ID":"2025-102F","EPOCH":"2026-03-09T13:34:48.218304","MEAN_MOTION":14.98340747,"ECCENTRICITY":0.0002934,"INCLINATION":70.0014,"RA_OF_ASC_NODE":114.7685,"ARG_OF_PERICENTER":276.8352,"MEAN_ANOMALY":83.2473,"EPHEMERIS_TYPE":0,"CLASSIFICATION_TYPE":"U","NORAD_CAT_ID":64027,"ELEMENT_SET_NO":999,"REV_AT_EPOCH":4587,"BSTAR":0.00038169,"MEAN_MOTION_DOT":4.465e-5,"MEAN_MOTION_DDOT":0},{"OBJECT_NAME":"COSMOS 839 DEB","OBJECT_ID":"1976-067BX","EPOCH":"2026-03-08T17:24:58.669056","MEAN_MOTION":13.01998819,"ECCENTRICITY":0.08994539,"INCLINATION":65.7348,"RA_OF_ASC_NODE":295.8622,"ARG_OF_PERICENTER":7.0167,"MEAN_ANOMALY":354.2512,"EPHEMERIS_TYPE":0,"CLASSIFICATION_TYPE":"U","NORAD_CAT_ID":20503,"ELEMENT_SET_NO":999,"REV_AT_EPOCH":65455,"BSTAR":0.00039757228,"MEAN_MOTION_DOT":8.34e-6,"MEAN_MOTION_DDOT":0}]
